LEMUR-2-ARIANNA         
1 62699U 25009CU  26062.20693911  .00009202  00000+0  73000-3 0  9990
2 62699  97.7028 144.5698 0004359 159.5151 200.6249 15.00734447 61658
LEMUR-2-ALISIA          
1 62706U 25009DB  26062.20497123  .00009528  00000+0  75025-3 0  9996
2 62706  97.7073 145.2176 0006270 174.1090 186.0208 15.01000424 84250
LEMUR-2-ROUNDTRIPPER    
1 62711U 25009DG  26062.23270185  .00010705  00000+0  82239-3 0  9996
2 62711  97.7310 145.1989 0004590 143.6319 216.5218 15.01916915 61716
LEMUR-2-MYNAMEISJEFF    
1 62712U 25009DH  26062.16459751  .00010466  00000+0  80455-3 0  9999
2 62712  97.7359 145.4492 0003697 172.1359 187.9923 15.01903344 61705
LEMUR-2-LEIA-PHILIP     
1 63246U 25052AN  26062.26342524  .00007238  00000+0  64119-3 0  9992
2 63246  97.6977 315.9648 0002594 196.2876 163.8262 14.96535508 52824
LEMUR-2-LIA-MARTIN      
1 63248U 25052AQ  26062.48611322  .00006696  00000+0  59105-3 0  9999
2 63248  97.7021 316.5408 0002980 160.2357 199.8981 14.96707693 52869
LEMUR-2-DELOITTE-1      
1 63259U 25052BB  26062.25429956  .00006562  00000+0  57933-3 0  9995
2 63259  97.7056 316.6236 0003239  92.0896 268.0696 14.96708219 52842
LEMUR-2-EMERSONROSE     
1 63261U 25052BD  26062.26664227  .00006972  00000+0  59311-3 0  9998
2 63261  97.7046 316.9824 0003395  65.4974 294.6602 14.98130896 52871
LEMUR-2-MARACHE-FRAN    
1 63262U 25052BE  26062.23314760  .00007678  00000+0  64186-3 0  9990
2 63262  97.7007 317.1383 0002388  42.2394 317.9012 14.98776028 52880
LEMUR-2-THEFALCONER     
1 63264U 25052BG  26062.26493300  .00005342  00000+0  47614-3 0  9996
2 63264  97.7001 316.3692 0002853  37.4884 322.6536 14.96418799 52843
LEMUR-2-UNTITLED-SC     
1 63351U 25061A   26062.47548983  .00006617  00000+0  38126-3 0  9998
2 63351  97.5544  38.7329 0017273 270.0903  89.8349 15.12613117 51608
LEMUR-2-ESPERANZA       
1 63352U 25061B   26062.39244109  .00005884  00000+0  33881-3 0  9991
2 63352  97.5552  38.7207 0016743 269.7610  90.1702 15.12690300 51599
LEMUR-2-KREMPEL-BRO2    
1 63353U 25061C   26061.92016868  .00005581  00000+0  31796-3 0  9996
2 63353  97.5597  38.6514 0017625 263.4858  96.4366 15.13087400 51535
LEMUR-2-THERMORAPTOR    
1 63354U 25061D   26062.37003796  .00005672  00000+0  32237-3 0  9995
2 63354  97.5603  39.1542 0017441 260.5777  99.3482 15.13168823 51603
LEMUR-2-NEUROSPICY      
1 63355U 25061E   26062.48190972  .00008366  00000+0  47241-3 0  9995
2 63355  97.5527  38.9737 0015330 264.4488  95.4995 15.13283748 51621
LEMUR-2-TILLINFINITY    
1 63356U 25061F   26062.42568759  .00006512  00000+0  36259-3 0  9990
2 63356  97.5514  39.1349 0016585 251.5953 108.3476 15.13856993 51634
