[{"OBJECT_NAME":"LEMUR-2-ARIANNA","OBJECT_ID":"2025-009CU","EPOCH":"2026-03-03T04:57:59.539104","MEAN_MOTION":15.00734447,"ECCENTRICITY":0.0004359,"INCLINATION":97.7028,"RA_OF_ASC_NODE":144.5698,"ARG_OF_PERICENTER":159.5151,"MEAN_ANOMALY":200.6249,"EPHEMERIS_TYPE":0,"CLASSIFICATION_TYPE":"U","NORAD_CAT_ID":62699,"ELEMENT_SET_NO":999,"REV_AT_EPOCH":6165,"BSTAR":0.00073,"MEAN_MOTION_DOT":9.202e-5,"MEAN_MOTION_DDOT":0},{"OBJECT_NAME":"LEMUR-2-ALISIA","OBJECT_ID":"2025-009DB","EPOCH":"2026-03-03T04:55:09.514272","MEAN_MOTION":15.01000424,"ECCENTRICITY":0.000627,"INCLINATION":97.7073,"RA_OF_ASC_NODE":145.2176,"ARG_OF_PERICENTER":174.109,"MEAN_ANOMALY":186.0208,"EPHEMERIS_TYPE":0,"CLASSIFICATION_TYPE":"U","NORAD_CAT_ID":62706,"ELEMENT_SET_NO":999,"REV_AT_EPOCH":8425,"BSTAR":0.00075025,"MEAN_MOTION_DOT":9.528e-5,"MEAN_MOTION_DDOT":0},{"OBJECT_NAME":"LEMUR-2-ROUNDTRIPPER","OBJECT_ID":"2025-009DG","EPOCH":"2026-03-03T05:35:05.439840","MEAN_MOTION":15.01916915,"ECCENTRICITY":0.000459,"INCLINATION":97.731,"RA_OF_ASC_NODE":145.1989,"ARG_OF_PERICENTER":143.6319,"MEAN_ANOMALY":216.5218,"EPHEMERIS_TYPE":0,"CLASSIFICATION_TYPE":"U","NORAD_CAT_ID":62711,"ELEMENT_SET_NO":999,"REV_AT_EPOCH":6171,"BSTAR":0.00082239,"MEAN_MOTION_DOT":0.00010705,"MEAN_MOTION_DDOT":0},{"OBJECT_NAME":"LEMUR-2-MYNAMEISJEFF","OBJECT_ID":"2025-009DH","EPOCH":"2026-03-03T03:57:01.224864","MEAN_MOTION":15.01903344,"ECCENTRICITY":0.0003697,"INCLINATION":97.7359,"RA_OF_ASC_NODE":145.4492,"ARG_OF_PERICENTER":172.1359,"MEAN_ANOMALY":187.9923,"EPHEMERIS_TYPE":0,"CLASSIFICATION_TYPE":"U","NORAD_CAT_ID":62712,"ELEMENT_SET_NO":999,"REV_AT_EPOCH":6170,"BSTAR":0.00080455,"MEAN_MOTION_DOT":0.00010466,"MEAN_MOTION_DDOT":0},{"OBJECT_NAME":"LEMUR-2-LEIA-PHILIP","OBJECT_ID":"2025-052AN","EPOCH":"2026-03-03T06:19:19.940736","MEAN_MOTION":14.96535508,"ECCENTRICITY":0.0002594,"INCLINATION":97.6977,"RA_OF_ASC_NODE":315.9648,"ARG_OF_PERICENTER":196.2876,"MEAN_ANOMALY":163.8262,"EPHEMERIS_TYPE":0,"CLASSIFICATION_TYPE":"U","NORAD_CAT_ID":63246,"ELEMENT_SET_NO":999,"REV_AT_EPOCH":5282,"BSTAR":0.00064119,"MEAN_MOTION_DOT":7.238e-5,"MEAN_MOTION_DDOT":0},{"OBJECT_NAME":"LEMUR-2-LIA-MARTIN","OBJECT_ID":"2025-052AQ","EPOCH":"2026-03-03T11:40:00.182208","MEAN_MOTION":14.96707693,"ECCENTRICITY":0.000298,"INCLINATION":97.7021,"RA_OF_ASC_NODE":316.5408,"ARG_OF_PERICENTER":160.2357,"MEAN_ANOMALY":199.8981,"EPHEMERIS_TYPE":0,"CLASSIFICATION_TYPE":"U","NORAD_CAT_ID":63248,"ELEMENT_SET_NO":999,"REV_AT_EPOCH":5286,"BSTAR":0.00059105,"MEAN_MOTION_DOT":6.696e-5,"MEAN_MOTION_DDOT":0},{"OBJECT_NAME":"LEMUR-2-DELOITTE-1","OBJECT_ID":"2025-052BB","EPOCH":"2026-03-03T06:06:11.481984","MEAN_MOTION":14.96708219,"ECCENTRICITY":0.0003239,"INCLINATION":97.7056,"RA_OF_ASC_NODE":316.6236,"ARG_OF_PERICENTER":92.0896,"MEAN_ANOMALY":268.0696,"EPHEMERIS_TYPE":0,"CLASSIFICATION_TYPE":"U","NORAD_CAT_ID":63259,"ELEMENT_SET_NO":999,"REV_AT_EPOCH":5284,"BSTAR":0.00057933,"MEAN_MOTION_DOT":6.562e-5,"MEAN_MOTION_DDOT":0},{"OBJECT_NAME":"LEMUR-2-EMERSONROSE","OBJECT_ID":"2025-052BD","EPOCH":"2026-03-03T06:23:57.892128","MEAN_MOTION":14.98130896,"ECCENTRICITY":0.0003395,"INCLINATION":97.7046,"RA_OF_ASC_NODE":316.9824,"ARG_OF_PERICENTER":65.4974,"MEAN_ANOMALY":294.6602,"EPHEMERIS_TYPE":0,"CLASSIFICATION_TYPE":"U","NORAD_CAT_ID":63261,"ELEMENT_SET_NO":999,"REV_AT_EPOCH":5287,"BSTAR":0.00059311,"MEAN_MOTION_DOT":6.972e-5,"MEAN_MOTION_DDOT":0},{"OBJECT_NAME":"LEMUR-2-MARACHE-FRAN","OBJECT_ID":"2025-052BE","EPOCH":"2026-03-03T05:35:43.952640","MEAN_MOTION":14.98776028,"ECCENTRICITY":0.0002388,"INCLINATION":97.7007,"RA_OF_ASC_NODE":317.1383,"ARG_OF_PERICENTER":42.2394,"MEAN_ANOMALY":317.9012,"EPHEMERIS_TYPE":0,"CLASSIFICATION_TYPE":"U","NORAD_CAT_ID":63262,"ELEMENT_SET_NO":999,"REV_AT_EPOCH":5288,"BSTAR":0.00064186,"MEAN_MOTION_DOT":7.678e-5,"MEAN_MOTION_DDOT":0},{"OBJECT_NAME":"LEMUR-2-THEFALCONER","OBJECT_ID":"2025-052BG","EPOCH":"2026-03-03T06:21:30.211200","MEAN_MOTION":14.96418799,"ECCENTRICITY":0.0002853,"INCLINATION":97.7001,"RA_OF_ASC_NODE":316.3692,"ARG_OF_PERICENTER":37.4884,"MEAN_ANOMALY":322.6536,"EPHEMERIS_TYPE":0,"CLASSIFICATION_TYPE":"U","NORAD_CAT_ID":63264,"ELEMENT_SET_NO":999,"REV_AT_EPOCH":5284,"BSTAR":0.00047614,"MEAN_MOTION_DOT":5.342e-5,"MEAN_MOTION_DDOT":0},{"OBJECT_NAME":"LEMUR-2-UNTITLED-SC","OBJECT_ID":"2025-061A","EPOCH":"2026-03-03T11:24:42.321312","MEAN_MOTION":15.12613117,"ECCENTRICITY":0.0017273,"INCLINATION":97.5544,"RA_OF_ASC_NODE":38.7329,"ARG_OF_PERICENTER":270.0903,"MEAN_ANOMALY":89.8349,"EPHEMERIS_TYPE":0,"CLASSIFICATION_TYPE":"U","NORAD_CAT_ID":63351,"ELEMENT_SET_NO":999,"REV_AT_EPOCH":5160,"BSTAR":0.00038126,"MEAN_MOTION_DOT":6.617e-5,"MEAN_MOTION_DDOT":0},{"OBJECT_NAME":"LEMUR-2-ESPERANZA","OBJECT_ID":"2025-061B","EPOCH":"2026-03-03T09:25:06.910176","MEAN_MOTION":15.126903,"ECCENTRICITY":0.0016743,"INCLINATION":97.5552,"RA_OF_ASC_NODE":38.7207,"ARG_OF_PERICENTER":269.761,"MEAN_ANOMALY":90.1702,"EPHEMERIS_TYPE":0,"CLASSIFICATION_TYPE":"U","NORAD_CAT_ID":63352,"ELEMENT_SET_NO":999,"REV_AT_EPOCH":5159,"BSTAR":0.00033881,"MEAN_MOTION_DOT":5.884e-5,"MEAN_MOTION_DDOT":0},{"OBJECT_NAME":"LEMUR-2-KREMPEL-BRO2","OBJECT_ID":"2025-061C","EPOCH":"2026-03-02T22:05:02.573952","MEAN_MOTION":15.130874,"ECCENTRICITY":0.0017625,"INCLINATION":97.5597,"RA_OF_ASC_NODE":38.6514,"ARG_OF_PERICENTER":263.4858,"MEAN_ANOMALY":96.4366,"EPHEMERIS_TYPE":0,"CLASSIFICATION_TYPE":"U","NORAD_CAT_ID":63353,"ELEMENT_SET_NO":999,"REV_AT_EPOCH":5153,"BSTAR":0.00031796,"MEAN_MOTION_DOT":5.581e-5,"MEAN_MOTION_DDOT":0},{"OBJECT_NAME":"LEMUR-2-THERMORAPTOR","OBJECT_ID":"2025-061D","EPOCH":"2026-03-03T08:52:51.279744","MEAN_MOTION":15.13168823,"ECCENTRICITY":0.0017441,"INCLINATION":97.5603,"RA_OF_ASC_NODE":39.1542,"ARG_OF_PERICENTER":260.5777,"MEAN_ANOMALY":99.3482,"EPHEMERIS_TYPE":0,"CLASSIFICATION_TYPE":"U","NORAD_CAT_ID":63354,"ELEMENT_SET_NO":999,"REV_AT_EPOCH":5160,"BSTAR":0.00032237,"MEAN_MOTION_DOT":5.672e-5,"MEAN_MOTION_DDOT":0},{"OBJECT_NAME":"LEMUR-2-NEUROSPICY","OBJECT_ID":"2025-061E","EPOCH":"2026-03-03T11:33:56.999808","MEAN_MOTION":15.13283748,"ECCENTRICITY":0.001533,"INCLINATION":97.5527,"RA_OF_ASC_NODE":38.9737,"ARG_OF_PERICENTER":264.4488,"MEAN_ANOMALY":95.4995,"EPHEMERIS_TYPE":0,"CLASSIFICATION_TYPE":"U","NORAD_CAT_ID":63355,"ELEMENT_SET_NO":999,"REV_AT_EPOCH":5162,"BSTAR":0.00047241,"MEAN_MOTION_DOT":8.366e-5,"MEAN_MOTION_DDOT":0},{"OBJECT_NAME":"LEMUR-2-TILLINFINITY","OBJECT_ID":"2025-061F","EPOCH":"2026-03-03T10:12:59.407776","MEAN_MOTION":15.13856993,"ECCENTRICITY":0.0016585,"INCLINATION":97.5514,"RA_OF_ASC_NODE":39.1349,"ARG_OF_PERICENTER":251.5953,"MEAN_ANOMALY":108.3476,"EPHEMERIS_TYPE":0,"CLASSIFICATION_TYPE":"U","NORAD_CAT_ID":63356,"ELEMENT_SET_NO":999,"REV_AT_EPOCH":5163,"BSTAR":0.00036259,"MEAN_MOTION_DOT":6.512e-5,"MEAN_MOTION_DDOT":0}]
